ONEWEB-0086             
1 45456U 20020AJ  26075.14602238 -.00000408  00000+0 -11870-2 0  9996
2 45456  87.8880  39.5512 0002208 101.2043 258.9334 13.11414573290413
ONEWEB-0111             
1 47261U 20100D   26075.19070313  .00000401  00000+0  10799-2 0  9999
2 47261  87.9012   9.1185 0001721  81.8985 278.2338 13.12442868252363
ONEWEB-0121             
1 47267U 20100K   26075.20763654  .00000014  00000+0  29081-5 0  9991
2 47267  87.9012   9.1100 0001781  85.2743 274.8589 13.12442037252449
ONEWEB-0126             
1 47272U 20100Q   26075.18575704  .00000546  00000+0  14820-2 0  9993
2 47272  87.9003   9.1342 0001954  75.9612 284.1733 13.12443475252505
ONEWEB-0132             
1 47278U 20100W   26075.20594577  .00000059  00000+0  12904-3 0  9992
2 47278  87.9002   9.1336 0001802  81.6782 278.4551 13.12441592252385
ONEWEB-0137             
1 47283U 20100AB  26075.06361804 -.00000344  00000+0 -99089-3 0  9995
2 47283  87.9014   9.1385 0001770  75.1299 285.0026 13.12440547252350
ONEWEB-0143             
1 47289U 20100AH  26075.08056971 -.00000358  00000+0 -10305-2 0  9997
2 47289  87.9012   9.1472 0001811  77.8196 282.3135 13.12443593252436
ONEWEB-0115             
1 48042U 21025A   26075.16287084  .00000186  00000+0  47393-3 0  9997
2 48042  87.9038 338.7278 0001702  80.4206 279.7116 13.13471149241388
ONEWEB-0150             
1 48047U 21025F   26075.16625744  .00000211  00000+0  54302-3 0  9998
2 48047  87.9040 338.7171 0001659  72.7754 287.3557 13.13471024241332
ONEWEB-0161             
1 48053U 21025M   26075.15610047 -.00000280  00000+0 -80232-3 0  9993
2 48053  87.9033 338.7315 0001779  68.3798 291.7521 13.13472403241290
ONEWEB-0149             
1 48058U 21025S   26075.14593814 -.00000231  00000+0 -66874-3 0  9991
2 48058  87.9040 338.7296 0001625  72.5107 287.6200 13.13471207241279
ONEWEB-0167             
1 48064U 21025Y   26075.18743055  .00000278  00000+0  72735-3 0  9998
2 48064  87.9031 338.7365 0002407  84.3072 275.8331 13.13471347241363
ONEWEB-0173             
1 48069U 21025AD  26075.19672919  .00000031  00000+0  50983-4 0  9993
2 48069  87.9037 338.7235 0002135  75.8761 284.2606 13.13470936241595
