
    {
      "objectName": "ONEWEB-0086",
      "objectId": "2020-020AJ",
      "noradId": 45456,
      "epochUtc": "2026-03-16T03:30:16.333632Z",
      "meanMotionRevPerDay": 13.11414573,
      "eccentricity": 0.00022088,
      "inclinationDeg": 87.888,
      "raanDeg": 39.5512,
      "argPerigeeDeg": 101.2043,
      "meanAnomalyDeg": 258.9334,
      "bstar": -0.0011869593,
      "meanMotionDot": -0.00000408,
      "meanMotionDdot": 0,
      "elementSetNo": 999,
      "revAtEpoch": 29041
    },
    {
      "objectName": "ONEWEB-0111",
      "objectId": "2020-100D",
      "noradId": 47261,
      "epochUtc": "2026-03-16T04:34:36.750432Z",
      "meanMotionRevPerDay": 13.12442868,
      "eccentricity": 0.0001721,
      "inclinationDeg": 87.9012,
      "raanDeg": 9.1185,
      "argPerigeeDeg": 81.8985,
      "meanAnomalyDeg": 278.2338,
      "bstar": 0.0010799147,
      "meanMotionDot": 0.00000401,
      "meanMotionDdot": 0,
      "elementSetNo": 999,
      "revAtEpoch": 25236
    },
    {
      "objectName": "ONEWEB-0121",
      "objectId": "2020-100K",
      "noradId": 47267,
      "epochUtc": "2026-03-16T04:58:59.797056Z",
      "meanMotionRevPerDay": 13.12442037,
      "eccentricity": 0.00017818,
      "inclinationDeg": 87.9012,
      "raanDeg": 9.11,
      "argPerigeeDeg": 85.2743,
      "meanAnomalyDeg": 274.8589,
      "bstar": 0.000002908066,
      "meanMotionDot": 1.4e-7,
      "meanMotionDdot": 0,
      "elementSetNo": 999,
      "revAtEpoch": 25244
    },
    {
      "objectName": "ONEWEB-0126",
      "objectId": "2020-100Q",
      "noradId": 47272,
      "epochUtc": "2026-03-16T04:27:29.408256Z",
      "meanMotionRevPerDay": 13.12443475,
      "eccentricity": 0.0001954,
      "inclinationDeg": 87.9003,
      "raanDeg": 9.1342,
      "argPerigeeDeg": 75.9612,
      "meanAnomalyDeg": 284.1733,
      "bstar": 0.0014819602,
      "meanMotionDot": 0.00000546,
      "meanMotionDdot": 0,
      "elementSetNo": 999,
      "revAtEpoch": 25250
    },
    {
      "objectName": "ONEWEB-0132",
      "objectId": "2020-100W",
      "noradId": 47278,
      "epochUtc": "2026-03-16T04:56:33.714528Z",
      "meanMotionRevPerDay": 13.12441592,
      "eccentricity": 0.00018023,
      "inclinationDeg": 87.9002,
      "raanDeg": 9.1336,
      "argPerigeeDeg": 81.6782,
      "meanAnomalyDeg": 278.4551,
      "bstar": 0.00012903907,
      "meanMotionDot": 5.9e-7,
      "meanMotionDdot": 0,
      "elementSetNo": 999,
      "revAtEpoch": 25238
    },
    {
      "objectName": "ONEWEB-0137",
      "objectId": "2020-100AB",
      "noradId": 47283,
      "epochUtc": "2026-03-16T01:31:36.598656Z",
      "meanMotionRevPerDay": 13.12440547,
      "eccentricity": 0.00017702,
      "inclinationDeg": 87.9014,
      "raanDeg": 9.1385,
      "argPerigeeDeg": 75.1299,
      "meanAnomalyDeg": 285.0026,
      "bstar": -0.00099089018,
      "meanMotionDot": -0.00000344,
      "meanMotionDdot": 0,
      "elementSetNo": 999,
      "revAtEpoch": 25235
    },
    {
      "objectName": "ONEWEB-0143",
      "objectId": "2020-100AH",
      "noradId": 47289,
      "epochUtc": "2026-03-16T01:56:01.222944Z",
      "meanMotionRevPerDay": 13.12443593,
      "eccentricity": 0.00018115,
      "inclinationDeg": 87.9012,
      "raanDeg": 9.1472,
      "argPerigeeDeg": 77.8196,
      "meanAnomalyDeg": 282.3135,
      "bstar": -0.0010305438,
      "meanMotionDot": -0.00000358,
      "meanMotionDdot": 0,
      "elementSetNo": 999,
      "revAtEpoch": 25243
    },
    {
      "objectName": "ONEWEB-0115",
      "objectId": "2021-025A",
      "noradId": 48042,
      "epochUtc": "2026-03-16T03:54:32.040576Z",
      "meanMotionRevPerDay": 13.13471149,
      "eccentricity": 0.00017022,
      "inclinationDeg": 87.9038,
      "raanDeg": 338.7278,
      "argPerigeeDeg": 80.4206,
      "meanAnomalyDeg": 279.7116,
      "bstar": 0.00047393297,
      "meanMotionDot": 0.00000186,
      "meanMotionDdot": 0,
      "elementSetNo": 999,
      "revAtEpoch": 24138
    },
    {
      "objectName": "ONEWEB-0150",
      "objectId": "2021-025F",
      "noradId": 48047,
      "epochUtc": "2026-03-16T03:59:24.642816Z",
      "meanMotionRevPerDay": 13.13471024,
      "eccentricity": 0.00016599,
      "inclinationDeg": 87.904,
      "raanDeg": 338.7171,
      "argPerigeeDeg": 72.7754,
      "meanAnomalyDeg": 287.3557,
      "bstar": 0.00054302276,
      "meanMotionDot": 0.00000211,
      "meanMotionDdot": 0,
      "elementSetNo": 999,
      "revAtEpoch": 24133
    },
    {
      "objectName": "ONEWEB-0161",
      "objectId": "2021-025M",
      "noradId": 48053,
      "epochUtc": "2026-03-16T03:44:47.080608Z",
      "meanMotionRevPerDay": 13.13472403,
      "eccentricity": 0.0001779,
      "inclinationDeg": 87.9033,
      "raanDeg": 338.7315,
      "argPerigeeDeg": 68.3798,
      "meanAnomalyDeg": 291.7521,
      "bstar": -0.00080231516,
      "meanMotionDot": -0.0000028,
      "meanMotionDdot": 0,
      "elementSetNo": 999,
      "revAtEpoch": 24129
    },
    {
      "objectName": "ONEWEB-0149",
      "objectId": "2021-025S",
      "noradId": 48058,
      "epochUtc": "2026-03-16T03:30:09.055296Z",
      "meanMotionRevPerDay": 13.13471207,
      "eccentricity": 0.00016253,
      "inclinationDeg": 87.904,
      "raanDeg": 338.7296,
      "argPerigeeDeg": 72.5107,
      "meanAnomalyDeg": 287.62,
      "bstar": -0.00066873867,
      "meanMotionDot": -0.00000231,
      "meanMotionDdot": 0,
      "elementSetNo": 999,
      "revAtEpoch": 24127
    },
    {
      "objectName": "ONEWEB-0167",
      "objectId": "2021-025Y",
      "noradId": 48064,
      "epochUtc": "2026-03-16T04:29:53.999520Z",
      "meanMotionRevPerDay": 13.13471347,
      "eccentricity": 0.00024079,
      "inclinationDeg": 87.9031,
      "raanDeg": 338.7365,
      "argPerigeeDeg": 84.3072,
      "meanAnomalyDeg": 275.8331,
      "bstar": 0.00072735091,
      "meanMotionDot": 0.00000278,
      "meanMotionDdot": 0,
      "elementSetNo": 999,
      "revAtEpoch": 24136
    },
    {
      "objectName": "ONEWEB-0173",
      "objectId": "2021-025AD",
      "noradId": 48069,
      "epochUtc": "2026-03-16T04:43:17.402016Z",
      "meanMotionRevPerDay": 13.13470936,
      "eccentricity": 0.00021351,
      "inclinationDeg": 87.9037,
      "raanDeg": 338.7235,
      "argPerigeeDeg": 75.8761,
      "meanAnomalyDeg": 284.2606,
      "bstar": 0.0000509831,
      "meanMotionDot": 3.1e-7,
      "meanMotionDdot": 0,
      "elementSetNo": 999,
      "revAtEpoch": 24159
    }